COSMOS 2534 [GLONASS-M] 
1 44299U 19030A   26195.47281674  .00000063  00000+0  00000+0 0  9990
2 44299  64.3706 191.6977 0013539 275.0889 276.6773  2.13102151 55505
BEIDOU-3 IGSO-2         
1 44337U 19035A   26195.29744954 -.00000136  00000+0  00000+0 0  9995
2 44337  55.2500 158.6248 0039548 216.6848 142.5030  1.00257926 25934
NAVSTAR 78 (USA 293)    
1 44506U 19056A   26194.52259712 -.00000092  00000+0  00000+0 0  9995
2 44506  55.6228 330.0964 0063366 198.1416 125.2994  2.00569859 50593
BEIDOU-3 M24            
1 44542U 19061A   26195.09011622  .00000051  00000+0  00000+0 0  9994
2 44542  54.3974 181.8206 0008608 359.4305   0.5490  1.86229164 46298
BEIDOU-3 M23            
1 44543U 19061B   26195.47191006  .00000046  00000+0  00000+0 0  9996
2 44543  54.3957 181.7762 0005908 339.8027 187.5730  1.86227565 46307
EUTELSAT 5 WEST B       
1 44624U 19067A   26195.34418456 -.00000050  00000+0  00000+0 0  9995
2 44624   0.0700 332.9891 0003089 138.9450 299.1681  1.00269868 24703
BEIDOU-3 M22            
1 44793U 19078A   26194.39343167 -.00000062  00000+0  00000+0 0  9997
2 44793  53.9106 298.9058 0005750  50.3045 309.7753  1.86227300 45134
BEIDOU-3 M21            
1 44794U 19078B   26193.45936353 -.00000062  00000+0  00000+0 0  9999
2 44794  53.8852 298.8992 0003702  52.5088 307.5509  1.86227618 45120
COSMOS 2544 [GLONASS-M] 
1 44850U 19088A   26192.43092179 -.00000019  00000+0  00000+0 0  9991
2 44850  65.5782  72.9223 0012329 255.3827 104.5453  2.13103002 51235
BEIDOU-3 M19            
1 44864U 19090A   26195.57982277 -.00000039  00000+0  00000+0 0  9996
2 44864  56.5830  61.8858 0016844 297.6622 241.5774  1.86230987 44741
BEIDOU-3 M20            
1 44865U 19090B   26194.37201139 -.00000039  00000+0  00000+0 0  9995
2 44865  56.5830  61.9605 0014540 312.7537 226.2950  1.86231167 44701
BEIDOU-3 G2             
1 45344U 20017A   26195.64620647 -.00000149  00000+0  00000+0 0  9991
2 45344   2.9179  47.7140 0001967  61.1886 136.2605  1.00269068 23534
COSMOS 2545 [GLONASS-M] 
1 45358U 20018A   26195.44141854 -.00000061  00000+0  00000+0 0  9996
2 45358  64.3375 311.4616 0009519 229.8963 130.0324  2.13102424 49241
BEIDOU-3 G3             
1 45807U 20040A   26194.79671881 -.00000360  00000+0  00000+0 0  9997
2 45807   2.5103  67.5175 0001680 327.4244 293.9568  1.00264431 22332
NAVSTAR 79 (USA 304)    
1 45854U 20041A   26194.89992063 -.00000062  00000+0  00000+0 0  9998
2 45854  56.6877  27.9079 0065106 204.6623 328.4566  2.00557726 44570
GALAXY 30 (G-30)        
1 46114U 20056C   26195.53432030  .00000029  00000+0  00000+0 0  9991
2 46114   0.0160  45.8535 0001967  69.3103 244.5766  1.00271569 21569
COSMOS 2547 [GLONASS-K] 
1 46805U 20075A   26195.16188692  .00000067  00000+0  00000+0 0  9992
2 46805  64.6014 191.5752 0009464 239.9777 119.9394  2.13099921 44485
NAVSTAR 80 (USA 309)    
1 46826U 20078A   26195.27335341  .00000063  00000+0  00000+0 0  9991
2 46826  53.9774 209.6799 0074533 207.7906 212.2426  2.00564893 42055
NAVSTAR 81 (USA 319)    
1 48859U 21054A   26193.93300233 -.00000091  00000+0  00000+0 0  9999
2 48859  55.1610 331.4250 0026406 228.5393 130.0348  2.00567088 37265
QZS-1R (MICHIBIKI-1R)   
1 49336U 21096A   26193.57683811 -.00000300  00000+0  00000+0 0  9995
2 49336  37.5114  79.2075 0755009 272.2000 278.6576  1.00245962 17263
GSAT0223 (GALILEO 27)   
1 49809U 21116A   26193.80162081 -.00000091  00000+0  00000+0 0  9997
2 49809  57.1512 340.9841 0002430 195.8611 164.1379  1.70475864 28612
GSAT0224 (GALILEO 28)   
1 49810U 21116B   26194.50046551 -.00000094  00000+0  00000+0 0  9993
2 49810  57.1519 340.9637 0001862 181.9105 359.6169  1.70475939 28651
COSMOS 2557 [GLONASS-K] 
1 52984U 22075A   26195.32601978 -.00000064  00000+0  00000+0 0  9992
2 52984  64.2812 313.5296 0010808 271.5221  88.3631  2.13102229 31295
COSMOS 2559 [GLONASS-K] 
1 54031U 22130A   26195.61497902 -.00000064  00000+0  00000+0 0  9991
2 54031  64.2534 313.6016 0013079 180.9566 179.0510  2.13101638 29272
COSMOS 2564 [GLONASS-M] 
1 54377U 22161A   26194.98885081  .00000070  00000+0  00000+0 0  9992
2 54377  64.7437 191.8219 0012244 225.0368 134.8766  2.13101969 28208
NAVSTAR 82 (USA 343)    
1 55268U 23009A   26195.13032167  .00000007  00000+0  00000+0 0  9991
2 55268  55.1235 147.4598 0006217 321.2556 220.5073  2.00569601 25787
BEIDOU-3 G4             
1 56564U 23066A   26195.65809909 -.00000288  00000+0  00000+0 0  9999
2 56564   0.4610 338.7424 0004889 187.4454 143.3051  1.00272619 11661
NVS-01 (IRNSS-1J)       
1 56759U 23076A   26195.51572480 -.00000344  00000+0  00000+0 0  9995
2 56759   2.1032 243.1118 0003555   7.1226 357.2389  1.00264974 11392
COSMOS 2569 [GLONASS-K2]
1 57517U 23114A   26195.47042529 -.00000009  00000+0  00000+0 0  9990
2 57517  65.3177  71.7007 0009702 296.0065  63.9698  2.13103712 22841
BEIDOU-3 M28            
1 58654U 23207A   26195.14722655 -.00000041  00000+0  00000+0 0  9991
2 58654  55.7766  61.3937 0002448   4.5125 355.5630  1.86229636 17345
BEIDOU-3 M26            
1 58655U 23207B   26194.94472031 -.00000041  00000+0  00000+0 0  9999
2 58655  55.7789  61.3870 0002015 324.6571  35.4025  1.86229652 17326
